[{"OBJECT_NAME":"STARLINK-33578","OBJECT_ID":"2025-063F","EPOCH":"2026-03-09T22:35:34.359360","MEAN_MOTION":15.3018665,"ECCENTRICITY":0.00013078,"INCLINATION":53.1613,"RA_OF_ASC_NODE":48.7626,"ARG_OF_PERICENTER":100.5813,"MEAN_ANOMALY":259.5335,"EPHEMERIS_TYPE":0,"CLASSIFICATION_TYPE":"U","NORAD_CAT_ID":63368,"ELEMENT_SET_NO":999,"REV_AT_EPOCH":5477,"BSTAR":0.0009055418,"MEAN_MOTION_DOT":0.00026545,"MEAN_MOTION_DDOT":0},{"OBJECT_NAME":"SCS-01 D","OBJECT_ID":"2025-100D","EPOCH":"2026-03-09T18:08:45.040704","MEAN_MOTION":15.31902149,"ECCENTRICITY":0.00063457,"INCLINATION":97.373,"RA_OF_ASC_NODE":145.4097,"ARG_OF_PERICENTER":266.2302,"MEAN_ANOMALY":93.8214,"EPHEMERIS_TYPE":0,"CLASSIFICATION_TYPE":"U","NORAD_CAT_ID":63985,"ELEMENT_SET_NO":999,"REV_AT_EPOCH":4562,"BSTAR":0.0010528181,"MEAN_MOTION_DOT":0.00032471,"MEAN_MOTION_DDOT":0}]
